STARLINK-31991          
1 59963U 24107U   26068.40844894  .00008199  00000+0  28844-3 0  9994
2 59963  53.1591  66.8176 0001271  93.8588 266.2558 15.30224420 99751
KUIPER-00266            
1 67789U 26030AB  26067.91293632  .00029701  00000+0  98220-3 0  9996
2 67789  51.8807 223.5904 0022313  72.5291 287.8129 15.30874235  4964
